QZS-1R                  
1 49336U 21096A   24052.44893230 -.00000295  00000+0  00000+0 0  9994
2 49336  35.7014  92.3020 0747120 269.0725  82.7351  1.00300412  8527
